H1 CPF 01  gfz 2021 10 21 12  7942 terrasarx 
H2 0702601  6201 31698    2021 10 21 12 59 42 2021 10 26 00 00 42   120 1 1  0 0 0
H9
10 0 59509  43182.000000  0    -892920.933    915403.480  -6775317.756
10 0 59509  43302.000000  0    -860531.083   1815365.141  -6595700.087
10 0 59509  43422.000000  0    -797763.338   2683045.566  -6301002.462
10 0 59509  43542.000000  0    -706398.120   3502868.167  -5896300.276
10 0 59509  43662.000000  0    -588976.268   4260094.676  -5388577.697
10 0 59509  43782.000000  0    -448740.111   4941090.646  -4786618.045
10 0 59509  43902.000000  0    -289558.380   5533576.303  -4100863.390
10 0 59509  44022.000000  0    -115835.560   6026856.683  -3343242.844
10 0 59509  44142.000000  0      67592.820   6412025.318  -2526972.380
10 0 59509  44262.000000  0     255576.693   6682137.674  -1666328.711
10 0 59509  44382.000000  0     442777.212   6832349.278   -776399.920
10 0 59509  44502.000000  0     623799.101   6860013.751    127182.549
10 0 59509  44622.000000  0     793326.305   6764737.646   1028525.095
10 0 59509  44742.000000  0     946256.934   6548389.334   1911760.055
10 0 59509  44862.000000  0    1077832.746   6215062.271   2761333.473
10 0 59509  44982.000000  0    1183761.301   5770995.194   3562286.310
10 0 59509  45102.000000  0    1260328.124   5224448.889   4300524.563
10 0 59509  45222.000000  0    1304497.171   4585544.949   4963072.142
10 0 59509  45342.000000  0    1313992.008   3866065.018   5538301.302
10 0 59509  45462.000000  0    1287361.532   3079223.533   6016130.644
10 0 59509  45582.000000  0    1224026.723   2239418.424   6388197.462
10 0 59509  45702.000000  0    1124307.342   1361961.813   6647998.670
10 0 59509  45822.000000  0     989428.915    462796.788   6790998.154
10 0 59509  45942.000000  0     821509.632   -441792.337   6814699.911
10 0 59509  46062.000000  0     623527.213  -1335473.752   6718690.352
10 0 59509  46182.000000  0     399265.981  -2202163.106   6504645.467
10 0 59509  46302.000000  0     153244.794  -3026313.151   6176303.798
10 0 59509  46422.000000  0    -109372.371  -3793194.506   5739403.297
10 0 59509  46542.000000  0    -382881.074  -4489159.384   5201585.028
10 0 59509  46662.000000  0    -661155.093  -5101888.053   4572267.759
10 0 59509  46782.000000  0    -937778.609  -5620616.532   3862490.646
10 0 59509  46902.000000  0   -1206188.648  -6036336.072   3084721.832
10 0 59509  47022.000000  0   -1459823.794  -6341958.604   2252639.797
10 0 59509  47142.000000  0   -1692276.114  -6532447.184   1380891.627
10 0 59509  47262.000000  0   -1897443.916  -6604906.466    484829.463
10 0 59509  47382.000000  0   -2069678.425  -6558629.082   -419768.110
10 0 59509  47502.000000  0   -2203921.949  -6395098.171  -1316982.664
10 0 59509  47622.000000  0   -2295834.461  -6117945.962  -2191044.416
10 0 59509  47742.000000  0   -2341905.520  -5732869.720  -3026616.813
10 0 59509  47862.000000  0   -2339548.334  -5247506.575  -3809071.111
10 0 59509  47982.000000  0   -2287173.474  -4671271.028  -4524743.830
10 0 59509  48102.000000  0   -2184241.081  -4015161.348  -5161171.963
10 0 59509  48222.000000  0   -2031291.194  -3291540.518  -5707303.231
10 0 59509  48342.000000  0   -1829951.867  -2513896.486  -6153679.402
10 0 59509  48462.000000  0   -1582924.455  -1696585.941  -6492589.870
10 0 59509  48582.000000  0   -1293947.115   -854567.867  -6718192.963
10 0 59509  48702.000000  0    -967738.459     -3132.160  -6826605.917
10 0 59509  48822.000000  0    -609921.225    842372.556  -6815963.894
10 0 59509  48942.000000  0    -226926.726   1666808.450  -6686448.397
10 0 59509  49062.000000  0     174116.938   2455512.282  -6440284.497
10 0 59509  49182.000000  0     585513.441   3194551.120  -6081708.905
10 0 59509  49302.000000  0     999142.664   3870966.698  -5616904.773
10 0 59509  49422.000000  0    1406616.381   4473002.309  -5053904.657
10 0 59509  49542.000000  0    1799444.378   4990311.326  -4402463.959
10 0 59509  49662.000000  0    2169208.233   5414142.929  -3673902.036
10 0 59509  49782.000000  0    2507738.503   5737499.154  -2880913.871
10 0 59509  49902.000000  0    2807292.384   5955261.499  -2037355.062
10 0 59509  50022.000000  0    3060727.833   6064282.873  -1158001.645
10 0 59509  50142.000000  0    3261668.881   6063441.220   -258288.666
10 0 59509  50262.000000  0    3404657.403   5953652.212    645966.528
10 0 59509  50382.000000  0    3485287.990   5737840.761   1538849.398
10 0 59509  50502.000000  0    3500322.943   5420872.994   2404636.184
10 0 59509  50622.000000  0    3447782.987   5009449.638   3228079.608
10 0 59509  50742.000000  0    3327012.510   4511961.192   3994685.158
10 0 59509  50862.000000  0    3138718.052   3938311.973   4690970.529
10 0 59509  50982.000000  0    2884975.427   3299715.982   5304707.131
10 0 59509  51102.000000  0    2569208.378   2608469.053   5825131.766
10 0 59509  51222.000000  0    2196142.960   1877706.892   6243130.407
10 0 59509  51342.000000  0    1771735.196   1121150.746   6551393.461
10 0 59509  51462.000000  0    1303072.921    352846.411   6744536.660
10 0 59509  51582.000000  0     798255.560   -413095.888   6819188.702
10 0 59509  51702.000000  0     266253.772  -1162759.954   6774047.940
10 0 59509  51822.000000  0    -283250.246  -1882676.701   6609903.620
10 0 59509  51942.000000  0    -840039.004  -2560066.016   6329622.367
10 0 59509  52062.000000  0   -1393548.590  -3183063.899   5938099.618
10 0 59509  52182.000000  0   -1933066.160  -3740930.918   5442179.092
10 0 59509  52302.000000  0   -2447936.939  -4224241.013   4850541.397
10 0 59509  52422.000000  0   -2927777.202  -4625047.302   4173559.172
10 0 59509  52542.000000  0   -3362686.976  -4937019.613   3423118.943
10 0 59509  52662.000000  0   -3743456.209  -5155550.499   2612413.189
10 0 59509  52782.000000  0   -4061760.460  -5277827.773   1755707.726
10 0 59509  52902.000000  0   -4310343.217  -5302871.868    868087.011
10 0 59509  53022.000000  0   -4483178.996  -5231535.769    -34817.769
10 0 59509  53142.000000  0   -4575613.265  -5066468.104   -937111.907
10 0 59509  53262.000000  0   -4584475.089  -4812039.609  -1822926.645
10 0 59509  53382.000000  0   -4508158.764  -4474233.969  -2676707.259
10 0 59509  53502.000000  0   -4346673.030  -4060506.846  -3483492.190
10 0 59509  53622.000000  0   -4101657.343  -3579618.307  -4229177.480
10 0 59509  53742.000000  0   -3776365.846  -3041443.237  -4900762.081
10 0 59509  53862.000000  0   -3375619.722  -2456763.929  -5486569.884
10 0 59509  53982.000000  0   -2905729.620  -1837050.593  -5976444.391
10 0 59509  54102.000000  0   -2374391.051  -1194234.678  -6361914.964
10 0 59509  54222.000000  0   -1790553.659   -540479.058  -6636332.415
10 0 59509  54342.000000  0   -1164268.006    112049.747  -6794971.562
10 0 59509  54462.000000  0    -506514.457    751402.658  -6835102.725
10 0 59509  54582.000000  0     170985.511   1366061.271  -6756033.922
10 0 59509  54702.000000  0     855972.130   1945139.534  -6559121.715
10 0 59509  54822.000000  0    1535864.281   2478572.832  -6247752.812
10 0 59509  54942.000000  0    2197986.106   2957291.097  -5827291.761
10 0 59509  55062.000000  0    2829799.796   3373373.247  -5304997.391
10 0 59509  55182.000000  0    3419140.515   3720179.783  -4689908.497
10 0 59509  55302.000000  0    3954451.423   3992463.718  -3992699.359
10 0 59509  55422.000000  0    4425013.835   4186455.572  -3225504.287
10 0 59509  55542.000000  0    4821167.173   4299920.199  -2401712.871
10 0 59509  55662.000000  0    5134512.282   4332183.335  -1535739.631
10 0 59509  55782.000000  0    5358094.797   4284127.417   -642771.444
10 0 59509  55902.000000  0    5486561.619   4158155.769    261502.760
10 0 59509  56022.000000  0    5516287.679   3958126.589   1161173.467
10 0 59509  56142.000000  0    5445469.843   3689256.389   2040398.802
10 0 59509  56262.000000  0    5274183.727   3357995.248   2883692.666
10 0 59509  56382.000000  0    5004401.173   2971878.408   3676206.124
10 0 59509  56502.000000  0    4639969.035   2539356.868   4403995.476
10 0 59509  56622.000000  0    4186550.215   2069611.259   5054269.257
10 0 59509  56742.000000  0    3651530.703   1572357.286   5615614.257
10 0 59509  56862.000000  0    3043890.053   1057642.811   6078194.091
10 0 59509  56982.000000  0    2374043.163    535642.766   6433914.741
10 0 59509  57102.000000  0    1653657.314     16458.833   6676558.693
10 0 59509  57222.000000  0     895446.631   -490074.702   6801889.389
10 0 59509  57342.000000  0     112945.262   -974577.162   6807721.317
10 0 59509  57462.000000  0    -679734.698  -1428294.553   6693954.689
10 0 59509  57582.000000  0   -1468157.222  -1843257.661   6462576.197
10 0 59509  57702.000000  0   -2237823.527  -2212421.642   6117624.993
10 0 59509  57822.000000  0   -2974436.489  -2529785.349   5665128.041
10 0 59509  57942.000000  0   -3664169.050  -2790491.696   5113003.527
10 0 59509  58062.000000  0   -4293929.048  -2990904.468   4470926.884
10 0 59509  58182.000000  0   -4851612.782  -3128659.623   3750165.114
10 0 59509  58302.000000  0   -5326343.696  -3202690.200   2963382.210
10 0 59509  58422.000000  0   -5708691.899  -3213225.269   2124418.398
10 0 59509  58542.000000  0   -5990869.394  -3161762.761   1248044.222
10 0 59509  58662.000000  0   -6166893.889  -3051014.904    349694.120
10 0 59509  58782.000000  0   -6232717.511  -2884827.768   -554812.704
10 0 59509  58902.000000  0   -6186317.867  -2668077.951  -1449560.221
10 0 59509  59022.000000  0   -6027746.351  -2406547.415  -2318825.501
10 0 59509  59142.000000  0   -5759133.968  -2106781.295  -3147361.431
10 0 59509  59262.000000  0   -5384656.657  -1775932.630  -3920668.107
10 0 59509  59382.000000  0   -4910460.292  -1421597.688  -4625247.019
10 0 59509  59502.000000  0   -4344548.971  -1051646.301  -5248833.708
10 0 59509  59622.000000  0   -3696638.505   -674050.721  -5780605.038
99
